{
"type": "FeatureCollection",
"name": "campuss",
"crs": { "type": "name", "properties": { "name": "urn:ogc:def:crs:OGC:1.3:CRS84" } },
"xy_coordinate_resolution": 1e-15,
"features": [
{ "type": "Feature", "properties": { "osm_id": 11333012013, "osm_type": "nodes", "amenity": "college", "isced_level": null, "capacity": null, "name": "SD Negeri Lebeng" }, "geometry": { "type": "Point", "coordinates": [ 110.2261484, -7.8466926 ] } },
{ "type": "Feature", "properties": { "osm_id": 4856606421, "osm_type": "nodes", "amenity": "school", "isced_level": null, "capacity": null, "name": "TK Budi Mulia Dua Sedayu" }, "geometry": { "type": "Point", "coordinates": [ 110.2671481, -7.818254 ] } },
{ "type": "Feature", "properties": { "osm_id": 10187542958, "osm_type": "nodes", "amenity": "school", "isced_level": null, "capacity": null, "name": "SD Negeri Jatisawit" }, "geometry": { "type": "Point", "coordinates": [ 110.2899868, -7.8149239 ] } },
{ "type": "Feature", "properties": { "osm_id": 1360407160, "osm_type": "nodes", "amenity": "university", "isced_level": null, "capacity": null, "name": "F. Hukum Univ. Janabadra'" }, "geometry": { "type": "Point", "coordinates": [ 110.3914903, -7.7963009 ] } },
{ "type": "Feature", "properties": { "osm_id": 7690360879, "osm_type": "nodes", "amenity": "school", "isced_level": null, "capacity": null, "name": "Aviaterra Aviation Training" }, "geometry": { "type": "Point", "coordinates": [ 110.3797011, -7.7922649 ] } },
{ "type": "Feature", "properties": { "osm_id": 1360407136, "osm_type": "nodes", "amenity": "school", "isced_level": null, "capacity": null, "name": "SDIT Luqman Al-Hakim" }, "geometry": { "type": "Point", "coordinates": [ 110.3908466, -7.7968209 ] } },
{ "type": "Feature", "properties": { "osm_id": 2295352323, "osm_type": "nodes", "amenity": "school", "isced_level": null, "capacity": null, "name": "Muhammadiyah 9 Junior High School" }, "geometry": { "type": "Point", "coordinates": [ 110.374189, -7.8240966 ] } },
{ "type": "Feature", "properties": { "osm_id": 3335336175, "osm_type": "nodes", "amenity": "school", "isced_level": null, "capacity": null, "name": "SD Krapyak Wetan" }, "geometry": { "type": "Point", "coordinates": [ 110.3656359, -7.8289645 ] } },
{ "type": "Feature", "properties": { "osm_id": 13234243302, "osm_type": "nodes", "amenity": "school", "isced_level": null, "capacity": null, "name": "SD N Tamanan" }, "geometry": { "type": "Point", "coordinates": [ 110.3812682, -7.8389915 ] } },
{ "type": "Feature", "properties": { "osm_id": 3582943395, "osm_type": "nodes", "amenity": "school", "isced_level": null, "capacity": null, "name": "Pesantren Taruna Al Quran" }, "geometry": { "type": "Point", "coordinates": [ 110.3327258, -7.8315295 ] } },
{ "type": "Feature", "properties": { "osm_id": 3630844907, "osm_type": "nodes", "amenity": "school", "isced_level": null, "capacity": null, "name": "SMP Negeri 3 Kasihan" }, "geometry": { "type": "Point", "coordinates": [ 110.3128653, -7.8396357 ] } },
{ "type": "Feature", "properties": { "osm_id": 2350428122, "osm_type": "nodes", "amenity": "school", "isced_level": null, "capacity": null, "name": "SMP N 2 KASIHAN" }, "geometry": { "type": "Point", "coordinates": [ 110.327149, -7.8257133 ] } },
{ "type": "Feature", "properties": { "osm_id": 5566226249, "osm_type": "nodes", "amenity": "school", "isced_level": null, "capacity": null, "name": "Kulila Playgroup" }, "geometry": { "type": "Point", "coordinates": [ 110.3231929, -7.8401885 ] } },
{ "type": "Feature", "properties": { "osm_id": 3630844916, "osm_type": "nodes", "amenity": "school", "isced_level": null, "capacity": null, "name": "SD Bibis" }, "geometry": { "type": "Point", "coordinates": [ 110.3147427, -7.8498644 ] } },
{ "type": "Feature", "properties": { "osm_id": 13323750901, "osm_type": "nodes", "amenity": "school", "isced_level": null, "capacity": null, "name": "SD N Kasongan" }, "geometry": { "type": "Point", "coordinates": [ 110.3329774, -7.8432584 ] } },
{ "type": "Feature", "properties": { "osm_id": 3616854460, "osm_type": "nodes", "amenity": "university", "isced_level": null, "capacity": null, "name": "Kampus Alma Atha" }, "geometry": { "type": "Point", "coordinates": [ 110.3250058, -7.8185019 ] } },
{ "type": "Feature", "properties": { "osm_id": 2796609791, "osm_type": "nodes", "amenity": "school", "isced_level": null, "capacity": null, "name": "Pondok Pesantren Nurul Ummah Kotagede" }, "geometry": { "type": "Point", "coordinates": [ 110.3958748, -7.8256924 ] } },
{ "type": "Feature", "properties": { "osm_id": 5172685376, "osm_type": "nodes", "amenity": "school", "isced_level": null, "capacity": null, "name": "SDN Ngentak" }, "geometry": { "type": "Point", "coordinates": [ 110.4190905, -7.8071495 ] } },
{ "type": "Feature", "properties": { "osm_id": 11202312637, "osm_type": "nodes", "amenity": "school", "isced_level": null, "capacity": null, "name": "Best School Yogyakarta" }, "geometry": { "type": "Point", "coordinates": [ 110.4001576, -7.8063049 ] } },
{ "type": "Feature", "properties": { "osm_id": 13201989001, "osm_type": "nodes", "amenity": "school", "isced_level": null, "capacity": null, "name": "SD N Jomblangan" }, "geometry": { "type": "Point", "coordinates": [ 110.4110479, -7.8074683 ] } },
{ "type": "Feature", "properties": { "osm_id": 11330321612, "osm_type": "nodes", "amenity": "school", "isced_level": null, "capacity": null, "name": "TK Asih Sejati" }, "geometry": { "type": "Point", "coordinates": [ 110.4117947, -7.7848147 ] } },
{ "type": "Feature", "properties": { "osm_id": 7902211085, "osm_type": "nodes", "amenity": "school", "isced_level": null, "capacity": null, "name": "AMA YPK Yogyakarta" }, "geometry": { "type": "Point", "coordinates": [ 110.4098734, -7.8012179 ] } },
{ "type": "Feature", "properties": { "osm_id": 3090531105, "osm_type": "nodes", "amenity": "school", "isced_level": null, "capacity": null, "name": "SD Negeri Blumbang" }, "geometry": { "type": "Point", "coordinates": [ 110.211811, -7.7095103 ] } },
{ "type": "Feature", "properties": { "osm_id": 2604032022, "osm_type": "nodes", "amenity": "school", "isced_level": null, "capacity": null, "name": "SD Negeri 1 Dekso" }, "geometry": { "type": "Point", "coordinates": [ 110.2251466, -7.7154735 ] } },
{ "type": "Feature", "properties": { "osm_id": 2493527333, "osm_type": "nodes", "amenity": "school", "isced_level": null, "capacity": null, "name": "SD Negeri 2 Dekso" }, "geometry": { "type": "Point", "coordinates": [ 110.2219584, -7.7190906 ] } },
{ "type": "Feature", "properties": { "osm_id": 2952127754, "osm_type": "nodes", "amenity": "school", "isced_level": null, "capacity": null, "name": "SD Negeri Banjarharjo" }, "geometry": { "type": "Point", "coordinates": [ 110.2581406, -7.6896036 ] } },
{ "type": "Feature", "properties": { "osm_id": 2952128809, "osm_type": "nodes", "amenity": "school", "isced_level": null, "capacity": null, "name": "SMP Negeri 2 Kalibawang" }, "geometry": { "type": "Point", "coordinates": [ 110.2566089, -7.6884019 ] } },
{ "type": "Feature", "properties": { "osm_id": 6404735471, "osm_type": "nodes", "amenity": "school", "isced_level": null, "capacity": null, "name": "SDN Kebonharjo" }, "geometry": { "type": "Point", "coordinates": [ 110.1603824, -7.7102151 ] } },
{ "type": "Feature", "properties": { "osm_id": 3708795893, "osm_type": "nodes", "amenity": "school", "isced_level": null, "capacity": null, "name": "Primagama bantul" }, "geometry": { "type": "Point", "coordinates": [ 110.3290517, -7.8909253 ] } },
{ "type": "Feature", "properties": { "osm_id": 3631002653, "osm_type": "nodes", "amenity": "school", "isced_level": null, "capacity": null, "name": "SMK Muhammadiyah Bantul" }, "geometry": { "type": "Point", "coordinates": [ 110.3274531, -7.8908111 ] } },
{ "type": "Feature", "properties": { "osm_id": 3931709938, "osm_type": "nodes", "amenity": "school", "isced_level": null, "capacity": null, "name": "SMA N 2 Bantul" }, "geometry": { "type": "Point", "coordinates": [ 110.3378325, -7.8942233 ] } },
{ "type": "Feature", "properties": { "osm_id": 3708796070, "osm_type": "nodes", "amenity": "school", "isced_level": null, "capacity": null, "name": "primagama" }, "geometry": { "type": "Point", "coordinates": [ 110.3290258, -7.8908306 ] } },
{ "type": "Feature", "properties": { "osm_id": 1351062359, "osm_type": "nodes", "amenity": "school", "isced_level": null, "capacity": null, "name": "BLPT" }, "geometry": { "type": "Point", "coordinates": [ 110.3541384, -7.7811119 ] } },
{ "type": "Feature", "properties": { "osm_id": 4824441424, "osm_type": "nodes", "amenity": "school", "isced_level": null, "capacity": null, "name": "Smp kalam kudus" }, "geometry": { "type": "Point", "coordinates": [ 110.3548258, -7.7696366 ] } },
{ "type": "Feature", "properties": { "osm_id": 10181462180, "osm_type": "nodes", "amenity": "school", "isced_level": null, "capacity": null, "name": "SD Negeri Cabean" }, "geometry": { "type": "Point", "coordinates": [ 110.1987345, -7.908284 ] } },
{ "type": "Feature", "properties": { "osm_id": 13800446781, "osm_type": "nodes", "amenity": "school", "isced_level": null, "capacity": null, "name": "SD Bendosari" }, "geometry": { "type": "Point", "coordinates": [ 110.3565182, -7.93673 ] } },
{ "type": "Feature", "properties": { "osm_id": 1359366165, "osm_type": "nodes", "amenity": "school", "isced_level": null, "capacity": null, "name": "SMP 6 Yogyakarta" }, "geometry": { "type": "Point", "coordinates": [ 110.3669962, -7.7782549 ] } },
{ "type": "Feature", "properties": { "osm_id": 5797442984, "osm_type": "nodes", "amenity": "school", "isced_level": null, "capacity": null, "name": "SD N 1 Donotirto" }, "geometry": { "type": "Point", "coordinates": [ 110.3203747, -7.9792682 ] } },
{ "type": "Feature", "properties": { "osm_id": 3630609634, "osm_type": "nodes", "amenity": "school", "isced_level": null, "capacity": null, "name": "SD Suryowijayan" }, "geometry": { "type": "Point", "coordinates": [ 110.3532201, -7.8101272 ] } },
{ "type": "Feature", "properties": { "osm_id": 2564065096, "osm_type": "nodes", "amenity": "school", "isced_level": null, "capacity": null, "name": "TK Pedagogia" }, "geometry": { "type": "Point", "coordinates": [ 110.3553115, -7.8170713 ] } },
{ "type": "Feature", "properties": { "osm_id": 3585153781, "osm_type": "nodes", "amenity": "university", "isced_level": null, "capacity": null, "name": "UPBJJ-UT Yogyakarta" }, "geometry": { "type": "Point", "coordinates": [ 110.3564265, -7.8182907 ] } },
{ "type": "Feature", "properties": { "osm_id": 10595432578, "osm_type": "nodes", "amenity": "school", "isced_level": null, "capacity": null, "name": "SMP N 2 SAMIGALUH" }, "geometry": { "type": "Point", "coordinates": [ 110.1576555, -7.6601157 ] } },
{ "type": "Feature", "properties": { "osm_id": 10609419769, "osm_type": "nodes", "amenity": "school", "isced_level": null, "capacity": null, "name": "SMA N 1 SAMIGALUH" }, "geometry": { "type": "Point", "coordinates": [ 110.1613908, -7.6616905 ] } },
{ "type": "Feature", "properties": { "osm_id": 10705747231, "osm_type": "nodes", "amenity": "school", "isced_level": null, "capacity": null, "name": "SD Negeri 1 Wijirejo" }, "geometry": { "type": "Point", "coordinates": [ 110.2957906, -7.9153407 ] } },
{ "type": "Feature", "properties": { "osm_id": 10705717648, "osm_type": "nodes", "amenity": "school", "isced_level": null, "capacity": null, "name": "SMK Negeri 1 Pandak" }, "geometry": { "type": "Point", "coordinates": [ 110.2953008, -7.9222202 ] } },
{ "type": "Feature", "properties": { "osm_id": 3688188833, "osm_type": "nodes", "amenity": "school", "isced_level": null, "capacity": null, "name": "SD Ngesong" }, "geometry": { "type": "Point", "coordinates": [ 110.1618799, -7.7716773 ] } },
{ "type": "Feature", "properties": { "osm_id": 9233467537, "osm_type": "nodes", "amenity": "school", "isced_level": null, "capacity": null, "name": "SD 3 Imogiri" }, "geometry": { "type": "Point", "coordinates": [ 110.3780732, -7.9214149 ] } },
{ "type": "Feature", "properties": { "osm_id": 9233467539, "osm_type": "nodes", "amenity": "school", "isced_level": null, "capacity": null, "name": "SMP Muhammadiyah Imogiri" }, "geometry": { "type": "Point", "coordinates": [ 110.3823271, -7.9205652 ] } },
{ "type": "Feature", "properties": { "osm_id": 10254071409, "osm_type": "nodes", "amenity": "school", "isced_level": null, "capacity": null, "name": "SMK Berbudi" }, "geometry": { "type": "Point", "coordinates": [ 110.3898902, -7.8314581 ] } },
{ "type": "Feature", "properties": { "osm_id": 9191255911, "osm_type": "nodes", "amenity": "school", "isced_level": null, "capacity": null, "name": "SD Kanisius Kotabaru 1" }, "geometry": { "type": "Point", "coordinates": [ 110.3705311, -7.789716 ] } },
{ "type": "Feature", "properties": { "osm_id": 5565944314, "osm_type": "nodes", "amenity": "school", "isced_level": null, "capacity": null, "name": "SD N Banarejo" }, "geometry": { "type": "Point", "coordinates": [ 110.2445425, -7.9020302 ] } },
{ "type": "Feature", "properties": { "osm_id": 3541789453, "osm_type": "nodes", "amenity": "school", "isced_level": null, "capacity": null, "name": "SMP Negeri 3 Girimulyo" }, "geometry": { "type": "Point", "coordinates": [ 110.1230431, -7.7507509 ] } },
{ "type": "Feature", "properties": { "osm_id": 13666927875, "osm_type": "nodes", "amenity": "school", "isced_level": null, "capacity": null, "name": "Pondok Pesantren Al-Miftah Kauman" }, "geometry": { "type": "Point", "coordinates": [ 110.2086218, -7.7664331 ] } },
{ "type": "Feature", "properties": { "osm_id": 13666927873, "osm_type": "nodes", "amenity": "school", "isced_level": null, "capacity": null, "name": "MA Al-Ichsan Nanggulan" }, "geometry": { "type": "Point", "coordinates": [ 110.208606, -7.7662344 ] } },
{ "type": "Feature", "properties": { "osm_id": 13666927874, "osm_type": "nodes", "amenity": "school", "isced_level": null, "capacity": null, "name": "MTs Al-Ichsan Nanggulan" }, "geometry": { "type": "Point", "coordinates": [ 110.2086215, -7.7661141 ] } },
{ "type": "Feature", "properties": { "osm_id": 3630420098, "osm_type": "nodes", "amenity": "school", "isced_level": null, "capacity": null, "name": "SD Kraton (Keputran III)" }, "geometry": { "type": "Point", "coordinates": [ 110.3598259, -7.8057905 ] } },
{ "type": "Feature", "properties": { "osm_id": 3315788117, "osm_type": "nodes", "amenity": "school", "isced_level": null, "capacity": null, "name": "SD Muhammadiyah Karangwaru" }, "geometry": { "type": "Point", "coordinates": [ 110.3621669, -7.7708746 ] } },
{ "type": "Feature", "properties": { "osm_id": 3562511834, "osm_type": "nodes", "amenity": "school", "isced_level": null, "capacity": null, "name": "PAUD" }, "geometry": { "type": "Point", "coordinates": [ 110.3700188, -7.9328116 ] } },
{ "type": "Feature", "properties": { "osm_id": 3562511833, "osm_type": "nodes", "amenity": "school", "isced_level": null, "capacity": null, "name": "TK PKK" }, "geometry": { "type": "Point", "coordinates": [ 110.3700527, -7.9329692 ] } },
{ "type": "Feature", "properties": { "osm_id": 3585153779, "osm_type": "nodes", "amenity": "school", "isced_level": null, "capacity": null, "name": "SD Negeri Minggiran" }, "geometry": { "type": "Point", "coordinates": [ 110.3617452, -7.8192476 ] } },
{ "type": "Feature", "properties": { "osm_id": 3256671759, "osm_type": "nodes", "amenity": "college", "isced_level": null, "capacity": null, "name": "Akademi Pariwisata Buana Pariwisata" }, "geometry": { "type": "Point", "coordinates": [ 110.3651748, -7.8144481 ] } },
{ "type": "Feature", "properties": { "osm_id": 2295350796, "osm_type": "nodes", "amenity": "school", "isced_level": null, "capacity": null, "name": "Muhammadiyah Jogokariyan Elementary" }, "geometry": { "type": "Point", "coordinates": [ 110.3662397, -7.8234357 ] } },
{ "type": "Feature", "properties": { "osm_id": 11324683222, "osm_type": "nodes", "amenity": "school", "isced_level": null, "capacity": null, "name": "Pondok PesantrenNurul Dholam Pengasih" }, "geometry": { "type": "Point", "coordinates": [ 110.1692486, -7.8396739 ] } },
{ "type": "Feature", "properties": { "osm_id": 8164034693, "osm_type": "nodes", "amenity": "school", "isced_level": null, "capacity": null, "name": "SD Negeri 2 Sanden" }, "geometry": { "type": "Point", "coordinates": [ 110.2650286, -7.9659692 ] } },
{ "type": "Feature", "properties": { "osm_id": 8164034697, "osm_type": "nodes", "amenity": "school", "isced_level": null, "capacity": null, "name": "SMP Negeri 1 Sanden" }, "geometry": { "type": "Point", "coordinates": [ 110.2657608, -7.9670588 ] } },
{ "type": "Feature", "properties": { "osm_id": 10609419838, "osm_type": "nodes", "amenity": "school", "isced_level": null, "capacity": null, "name": "SD N NGALIYAN" }, "geometry": { "type": "Point", "coordinates": [ 110.1480294, -7.6667002 ] } },
{ "type": "Feature", "properties": { "osm_id": 10609419790, "osm_type": "nodes", "amenity": "school", "isced_level": null, "capacity": null, "name": "SD N NGARGOSARI" }, "geometry": { "type": "Point", "coordinates": [ 110.1533683, -7.660639 ] } },
{ "type": "Feature", "properties": { "osm_id": 10609419789, "osm_type": "nodes", "amenity": "school", "isced_level": null, "capacity": null, "name": "SD N TRAYU" }, "geometry": { "type": "Point", "coordinates": [ 110.1551088, -7.6578807 ] } },
{ "type": "Feature", "properties": { "osm_id": 4799168321, "osm_type": "nodes", "amenity": "school", "isced_level": null, "capacity": null, "name": "SMP Negeri 7" }, "geometry": { "type": "Point", "coordinates": [ 110.3506801, -7.7913761 ] } },
{ "type": "Feature", "properties": { "osm_id": 3617094218, "osm_type": "nodes", "amenity": "school", "isced_level": null, "capacity": null, "name": "SLB 1 Bantul" }, "geometry": { "type": "Point", "coordinates": [ 110.3395227, -7.8009856 ] } },
{ "type": "Feature", "properties": { "osm_id": 4799168421, "osm_type": "nodes", "amenity": "school", "isced_level": null, "capacity": null, "name": "TK-SD Kanisius Wirobrajan" }, "geometry": { "type": "Point", "coordinates": [ 110.3520864, -7.8004993 ] } },
{ "type": "Feature", "properties": { "osm_id": 3294291961, "osm_type": "nodes", "amenity": "school", "isced_level": null, "capacity": null, "name": "MI Pagerharjo" }, "geometry": { "type": "Point", "coordinates": [ 110.1350464, -7.6726537 ] } },
{ "type": "Feature", "properties": { "osm_id": 3100048467, "osm_type": "nodes", "amenity": "school", "isced_level": null, "capacity": null, "name": "SMP Negeri 4 Samigaluh" }, "geometry": { "type": "Point", "coordinates": [ 110.1347058, -7.6744325 ] } },
{ "type": "Feature", "properties": { "osm_id": 13018336645, "osm_type": "nodes", "amenity": "school", "isced_level": null, "capacity": null, "name": "SD Ngeri Kotagede III" }, "geometry": { "type": "Point", "coordinates": [ 110.3862857, -7.8208667 ] } },
{ "type": "Feature", "properties": { "osm_id": 13245385601, "osm_type": "nodes", "amenity": "school", "isced_level": null, "capacity": null, "name": "SD N Jarakan" }, "geometry": { "type": "Point", "coordinates": [ 110.3534608, -7.8341772 ] } },
{ "type": "Feature", "properties": { "osm_id": 3919366910, "osm_type": "nodes", "amenity": "school", "isced_level": null, "capacity": null, "name": "SMP N 1 Pundong" }, "geometry": { "type": "Point", "coordinates": [ 110.3321134, -7.9584128 ] } },
{ "type": "Feature", "properties": { "osm_id": 11329642680, "osm_type": "nodes", "amenity": "school", "isced_level": null, "capacity": null, "name": "SD Tirtoharjo" }, "geometry": { "type": "Point", "coordinates": [ 110.2897733, -7.9987516 ] } },
{ "type": "Feature", "properties": { "osm_id": 3630343677, "osm_type": "nodes", "amenity": "school", "isced_level": null, "capacity": null, "name": "SD Kanisius Kumendaman" }, "geometry": { "type": "Point", "coordinates": [ 110.3609135, -7.8139952 ] } },
{ "type": "Feature", "properties": { "osm_id": 11324134009, "osm_type": "nodes", "amenity": "school", "isced_level": null, "capacity": null, "name": "TK Pertiwi Pamardi Putra 4" }, "geometry": { "type": "Point", "coordinates": [ 110.1650894, -7.8355431 ] } },
{ "type": "Feature", "properties": { "osm_id": 3377375384, "osm_type": "nodes", "amenity": "school", "isced_level": null, "capacity": null, "name": "SD Tegalsari" }, "geometry": { "type": "Point", "coordinates": [ 110.1329019, -7.7256208 ] } },
{ "type": "Feature", "properties": { "osm_id": 12119425188, "osm_type": "nodes", "amenity": "school", "isced_level": null, "capacity": null, "name": "MA Ma'arif Nurul Haromain" }, "geometry": { "type": "Point", "coordinates": [ 110.2346808, -7.8751085 ] } },
{ "type": "Feature", "properties": { "osm_id": 12119425189, "osm_type": "nodes", "amenity": "school", "isced_level": null, "capacity": null, "name": "MTs Ma'arif Nurul Haromain" }, "geometry": { "type": "Point", "coordinates": [ 110.2343819, -7.8751733 ] } },
{ "type": "Feature", "properties": { "osm_id": 12119425192, "osm_type": "nodes", "amenity": "school", "isced_level": null, "capacity": null, "name": "Pondok Pesantren Nurul Haromain Sentolo" }, "geometry": { "type": "Point", "coordinates": [ 110.2316244, -7.8759252 ] } },
{ "type": "Feature", "properties": { "osm_id": 12053073066, "osm_type": "nodes", "amenity": "school", "isced_level": null, "capacity": null, "name": "SD Negeri Kalikutuk" }, "geometry": { "type": "Point", "coordinates": [ 110.2411851, -7.8719357 ] } },
{ "type": "Feature", "properties": { "osm_id": 2160171834, "osm_type": "nodes", "amenity": "school", "isced_level": null, "capacity": null, "name": "MTS Negeri Sidoharjo" }, "geometry": { "type": "Point", "coordinates": [ 110.2007854, -7.6762361 ] } },
{ "type": "Feature", "properties": { "osm_id": 1836625511, "osm_type": "nodes", "amenity": "school", "isced_level": null, "capacity": null, "name": "Kembang Sari Basic School" }, "geometry": { "type": "Point", "coordinates": [ 110.4798103, -7.8243054 ] } },
{ "type": "Feature", "properties": { "osm_id": 3585123761, "osm_type": "nodes", "amenity": "school", "isced_level": null, "capacity": null, "name": "SD Negeri Suryodiningratan 2" }, "geometry": { "type": "Point", "coordinates": [ 110.3583363, -7.8161615 ] } },
{ "type": "Feature", "properties": { "osm_id": 11160747605, "osm_type": "nodes", "amenity": "school", "isced_level": null, "capacity": null, "name": "Pesantren Teknologi Indonesia" }, "geometry": { "type": "Point", "coordinates": [ 110.3839294, -7.8509985 ] } },
{ "type": "Feature", "properties": { "osm_id": 6709846383, "osm_type": "nodes", "amenity": "university", "isced_level": null, "capacity": null, "name": "Kampus 4 Universitas Ahmad Dahlan" }, "geometry": { "type": "Point", "coordinates": [ 110.382397, -7.8335227 ] } },
{ "type": "Feature", "properties": { "osm_id": 4799168221, "osm_type": "nodes", "amenity": "school", "isced_level": null, "capacity": null, "name": "TK Buyung" }, "geometry": { "type": "Point", "coordinates": [ 110.3526404, -7.7921516 ] } },
{ "type": "Feature", "properties": { "osm_id": 4799168325, "osm_type": "nodes", "amenity": "school", "isced_level": null, "capacity": null, "name": "SMA Bopkri 2" }, "geometry": { "type": "Point", "coordinates": [ 110.3771737, -7.7827855 ] } },
{ "type": "Feature", "properties": { "osm_id": 3229499839, "osm_type": "nodes", "amenity": "school", "isced_level": null, "capacity": null, "name": "SD Muhammadiyah 10" }, "geometry": { "type": "Point", "coordinates": [ 110.3786041, -7.7799717 ] } },
{ "type": "Feature", "properties": { "osm_id": 13441438601, "osm_type": "nodes", "amenity": "school", "isced_level": null, "capacity": null, "name": "SD N Kepuhan" }, "geometry": { "type": "Point", "coordinates": [ 110.3710239, -7.8704411 ] } },
{ "type": "Feature", "properties": { "osm_id": 1839318397, "osm_type": "nodes", "amenity": "school", "isced_level": null, "capacity": null, "name": null }, "geometry": { "type": "Point", "coordinates": [ 110.3435938, -7.8417193 ] } },
{ "type": "Feature", "properties": { "osm_id": 3931709939, "osm_type": "nodes", "amenity": "school", "isced_level": null, "capacity": null, "name": "SMP 1 Bantul" }, "geometry": { "type": "Point", "coordinates": [ 110.3387838, -7.8946381 ] } },
{ "type": "Feature", "properties": { "osm_id": 8229873061, "osm_type": "nodes", "amenity": "university", "isced_level": null, "capacity": null, "name": "STiKIP CATUR SAKTI" }, "geometry": { "type": "Point", "coordinates": [ 110.3383387, -7.8934041 ] } },
{ "type": "Feature", "properties": { "osm_id": 3359126112, "osm_type": "nodes", "amenity": "school", "isced_level": null, "capacity": null, "name": "SMP Negeri 2 Moyudan" }, "geometry": { "type": "Point", "coordinates": [ 110.2296122, -7.7714154 ] } },
{ "type": "Feature", "properties": { "osm_id": 4697613089, "osm_type": "nodes", "amenity": "school", "isced_level": null, "capacity": null, "name": null }, "geometry": { "type": "Point", "coordinates": [ 110.3782507, -7.805275 ] } },
{ "type": "Feature", "properties": { "osm_id": 9960752170, "osm_type": "nodes", "amenity": "school", "isced_level": null, "capacity": null, "name": "SD Negeri Sampangan" }, "geometry": { "type": "Point", "coordinates": [ 110.3976956, -7.8522329 ] } },
{ "type": "Feature", "properties": { "osm_id": 9960727676, "osm_type": "nodes", "amenity": "school", "isced_level": null, "capacity": null, "name": "MITQ Jamilurrahman" }, "geometry": { "type": "Point", "coordinates": [ 110.3993349, -7.8490874 ] } },
{ "type": "Feature", "properties": { "osm_id": 9960758357, "osm_type": "nodes", "amenity": "school", "isced_level": null, "capacity": null, "name": "SMA Negeri 2 Banguntapan" }, "geometry": { "type": "Point", "coordinates": [ 110.4016196, -7.8474528 ] } },
{ "type": "Feature", "properties": { "osm_id": 12406096939, "osm_type": "nodes", "amenity": "school", "isced_level": null, "capacity": null, "name": "MAN 3 Bantul" }, "geometry": { "type": "Point", "coordinates": [ 110.3913374, -7.8696775 ] } },
{ "type": "Feature", "properties": { "osm_id": 3279608791, "osm_type": "nodes", "amenity": "school", "isced_level": null, "capacity": null, "name": "SMK Muhammadiyah Gamping" }, "geometry": { "type": "Point", "coordinates": [ 110.3092632, -7.80428 ] } },
{ "type": "Feature", "properties": { "osm_id": 4146176394, "osm_type": "nodes", "amenity": "school", "isced_level": null, "capacity": null, "name": "SMA YPKK 1 Sleman" }, "geometry": { "type": "Point", "coordinates": [ 110.3248344, -7.7875218 ] } },
{ "type": "Feature", "properties": { "osm_id": 3279609232, "osm_type": "nodes", "amenity": "school", "isced_level": null, "capacity": null, "name": "SMP Kalimanjung" }, "geometry": { "type": "Point", "coordinates": [ 110.3119236, -7.8137119 ] } },
{ "type": "Feature", "properties": { "osm_id": 10187553495, "osm_type": "nodes", "amenity": "school", "isced_level": null, "capacity": null, "name": "PAUD Az-Zahra" }, "geometry": { "type": "Point", "coordinates": [ 110.2909681, -7.8156459 ] } },
{ "type": "Feature", "properties": { "osm_id": 9751933976, "osm_type": "nodes", "amenity": "school", "isced_level": null, "capacity": null, "name": null }, "geometry": { "type": "Point", "coordinates": [ 110.5720664, -7.9349091 ] } },
{ "type": "Feature", "properties": { "osm_id": 4537056696, "osm_type": "nodes", "amenity": "school", "isced_level": null, "capacity": null, "name": "SD Sayangan" }, "geometry": { "type": "Point", "coordinates": [ 110.5678758, -7.936068 ] } },
{ "type": "Feature", "properties": { "osm_id": 3123656029, "osm_type": "nodes", "amenity": "school", "isced_level": null, "capacity": null, "name": "SMP Negeri 2 Tempel" }, "geometry": { "type": "Point", "coordinates": [ 110.2836323, -7.7016628 ] } },
{ "type": "Feature", "properties": { "osm_id": 10575717709, "osm_type": "nodes", "amenity": "school", "isced_level": null, "capacity": null, "name": "MBS Yogyakarta - Asrama Putri" }, "geometry": { "type": "Point", "coordinates": [ 110.4861094, -7.7803302 ] } },
{ "type": "Feature", "properties": { "osm_id": 11993251481, "osm_type": "nodes", "amenity": "school", "isced_level": null, "capacity": null, "name": "SLB bhakti pertiwi unit 2" }, "geometry": { "type": "Point", "coordinates": [ 110.4912397, -7.7768517 ] } },
{ "type": "Feature", "properties": { "osm_id": 7961908738, "osm_type": "nodes", "amenity": "school", "isced_level": null, "capacity": null, "name": "MBS AR FACRUDDIN PUTRI" }, "geometry": { "type": "Point", "coordinates": [ 110.4752714, -7.7835002 ] } },
{ "type": "Feature", "properties": { "osm_id": 10575717707, "osm_type": "nodes", "amenity": "school", "isced_level": null, "capacity": null, "name": "MBS Yogyakarta - Asrama Putra" }, "geometry": { "type": "Point", "coordinates": [ 110.4877669, -7.779938 ] } },
{ "type": "Feature", "properties": { "osm_id": 3320084561, "osm_type": "nodes", "amenity": "school", "isced_level": null, "capacity": null, "name": "SMP 1 Sleman" }, "geometry": { "type": "Point", "coordinates": [ 110.3394629, -7.6839621 ] } },
{ "type": "Feature", "properties": { "osm_id": 3320084661, "osm_type": "nodes", "amenity": "school", "isced_level": null, "capacity": null, "name": "SMA 1 Sleman" }, "geometry": { "type": "Point", "coordinates": [ 110.3392264, -7.6830861 ] } },
{ "type": "Feature", "properties": { "osm_id": 2130483746, "osm_type": "nodes", "amenity": "school", "isced_level": null, "capacity": null, "name": "MI Al Ihsan" }, "geometry": { "type": "Point", "coordinates": [ 110.3401637, -7.6744731 ] } },
{ "type": "Feature", "properties": { "osm_id": 1364438080, "osm_type": "nodes", "amenity": "school", "isced_level": null, "capacity": null, "name": "SMP Kanisius Sleman" }, "geometry": { "type": "Point", "coordinates": [ 110.3423362, -7.6894416 ] } },
{ "type": "Feature", "properties": { "osm_id": 2886671437, "osm_type": "nodes", "amenity": "school", "isced_level": null, "capacity": null, "name": "SD Negeri Keceme 1" }, "geometry": { "type": "Point", "coordinates": [ 110.321844, -7.6848766 ] } },
{ "type": "Feature", "properties": { "osm_id": 4585536386, "osm_type": "nodes", "amenity": "university", "isced_level": null, "capacity": null, "name": null }, "geometry": { "type": "Point", "coordinates": [ 110.4142259, -7.7785341 ] } },
{ "type": "Feature", "properties": { "osm_id": 1988467903, "osm_type": "nodes", "amenity": "school", "isced_level": null, "capacity": null, "name": "SD Perumnas" }, "geometry": { "type": "Point", "coordinates": [ 110.4072218, -7.7567811 ] } },
{ "type": "Feature", "properties": { "osm_id": 1517532161, "osm_type": "nodes", "amenity": "school", "isced_level": null, "capacity": null, "name": "2nd Experimental State Elementary Scool" }, "geometry": { "type": "Point", "coordinates": [ 110.3718978, -7.7729219 ] } },
{ "type": "Feature", "properties": { "osm_id": 3195290749, "osm_type": "nodes", "amenity": "college", "isced_level": null, "capacity": null, "name": "Laboratorium Teknik Mesin" }, "geometry": { "type": "Point", "coordinates": [ 110.370665, -7.7657049 ] } },
{ "type": "Feature", "properties": { "osm_id": 3473993551, "osm_type": "nodes", "amenity": "school", "isced_level": null, "capacity": null, "name": "SMA Gama (Tiga Maret)" }, "geometry": { "type": "Point", "coordinates": [ 110.3890244, -7.7741677 ] } },
{ "type": "Feature", "properties": { "osm_id": 4297198893, "osm_type": "nodes", "amenity": "school", "isced_level": null, "capacity": null, "name": "Civil Engineering UGM" }, "geometry": { "type": "Point", "coordinates": [ 110.3733743, -7.7645087 ] } },
{ "type": "Feature", "properties": { "osm_id": 2167655299, "osm_type": "nodes", "amenity": "school", "isced_level": null, "capacity": null, "name": "SD Negeri Perumnas III" }, "geometry": { "type": "Point", "coordinates": [ 110.4111956, -7.7553816 ] } },
{ "type": "Feature", "properties": { "osm_id": 4162538389, "osm_type": "nodes", "amenity": "school", "isced_level": null, "capacity": null, "name": "PADI UKDI" }, "geometry": { "type": "Point", "coordinates": [ 110.3814091, -7.7527011 ] } },
{ "type": "Feature", "properties": { "osm_id": 4590655044, "osm_type": "nodes", "amenity": "school", "isced_level": null, "capacity": null, "name": "PPPPTK Matematika" }, "geometry": { "type": "Point", "coordinates": [ 110.3929405, -7.7535376 ] } },
{ "type": "Feature", "properties": { "osm_id": 6009386386, "osm_type": "nodes", "amenity": "school", "isced_level": null, "capacity": null, "name": "Sekolah Dasar  SD Negeri Karangwuni 1" }, "geometry": { "type": "Point", "coordinates": [ 110.382478, -7.7626727 ] } },
{ "type": "Feature", "properties": { "osm_id": 3473031892, "osm_type": "nodes", "amenity": "school", "isced_level": null, "capacity": null, "name": "SD Olifant" }, "geometry": { "type": "Point", "coordinates": [ 110.3917843, -7.7801665 ] } },
{ "type": "Feature", "properties": { "osm_id": 11299048146, "osm_type": "nodes", "amenity": "school", "isced_level": null, "capacity": null, "name": "TK ABA Perumnas Condongcatur" }, "geometry": { "type": "Point", "coordinates": [ 110.4065319, -7.7532429 ] } },
{ "type": "Feature", "properties": { "osm_id": 13800384385, "osm_type": "nodes", "amenity": "college", "isced_level": null, "capacity": null, "name": "GEDUNG KLMB" }, "geometry": { "type": "Point", "coordinates": [ 110.3779181, -7.7666138 ] } },
{ "type": "Feature", "properties": { "osm_id": 13800398874, "osm_type": "nodes", "amenity": "college", "isced_level": null, "capacity": null, "name": "Gedung B" }, "geometry": { "type": "Point", "coordinates": [ 110.3774574, -7.7666476 ] } },
{ "type": "Feature", "properties": { "osm_id": 4590655045, "osm_type": "nodes", "amenity": "school", "isced_level": null, "capacity": null, "name": "SMP 1 Depok" }, "geometry": { "type": "Point", "coordinates": [ 110.3950004, -7.7525644 ] } },
{ "type": "Feature", "properties": { "osm_id": 13800363193, "osm_type": "nodes", "amenity": "university", "isced_level": null, "capacity": null, "name": "Balairung UGM" }, "geometry": { "type": "Point", "coordinates": [ 110.3785729, -7.7676724 ] } },
{ "type": "Feature", "properties": { "osm_id": 13800429684, "osm_type": "nodes", "amenity": "university", "isced_level": null, "capacity": null, "name": "Laboratorium Penginderaan Jauh UGM" }, "geometry": { "type": "Point", "coordinates": [ 110.3775482, -7.7666795 ] } },
{ "type": "Feature", "properties": { "osm_id": 5558443527, "osm_type": "nodes", "amenity": "school", "isced_level": null, "capacity": null, "name": "SD Negeri Karangasem" }, "geometry": { "type": "Point", "coordinates": [ 110.4116589, -7.7511714 ] } },
{ "type": "Feature", "properties": { "osm_id": 13293597433, "osm_type": "nodes", "amenity": "school", "isced_level": null, "capacity": null, "name": "Kursus Bahasa Jerman Inovedu Yogyakarta" }, "geometry": { "type": "Point", "coordinates": [ 110.3892379, -7.7410883 ] } },
{ "type": "Feature", "properties": { "osm_id": 3521567388, "osm_type": "nodes", "amenity": "school", "isced_level": null, "capacity": null, "name": "SMP Negeri 4 Ngaglik" }, "geometry": { "type": "Point", "coordinates": [ 110.3876934, -7.715866 ] } },
{ "type": "Feature", "properties": { "osm_id": 8148013312, "osm_type": "nodes", "amenity": "school", "isced_level": null, "capacity": null, "name": "SD Kanisius Beji" }, "geometry": { "type": "Point", "coordinates": [ 110.5699292, -7.9147691 ] } },
{ "type": "Feature", "properties": { "osm_id": 8385963762, "osm_type": "nodes", "amenity": "school", "isced_level": null, "capacity": null, "name": "TK ABA Gading 3" }, "geometry": { "type": "Point", "coordinates": [ 110.5551344, -7.9102545 ] } },
{ "type": "Feature", "properties": { "osm_id": 8385968788, "osm_type": "nodes", "amenity": "school", "isced_level": null, "capacity": null, "name": "SMPN 2 Playen" }, "geometry": { "type": "Point", "coordinates": [ 110.5561814, -7.9126456 ] } },
{ "type": "Feature", "properties": { "osm_id": 4307247518, "osm_type": "nodes", "amenity": "school", "isced_level": null, "capacity": null, "name": "SDN Klampok" }, "geometry": { "type": "Point", "coordinates": [ 110.4101252, -8.0351572 ] } },
{ "type": "Feature", "properties": { "osm_id": 5553448119, "osm_type": "nodes", "amenity": "school", "isced_level": null, "capacity": null, "name": null }, "geometry": { "type": "Point", "coordinates": [ 110.4660755, -8.0331895 ] } },
{ "type": "Feature", "properties": { "osm_id": 4871678622, "osm_type": "nodes", "amenity": "school", "isced_level": null, "capacity": null, "name": "Pondok darusasholihin" }, "geometry": { "type": "Point", "coordinates": [ 110.4563432, -8.0419614 ] } },
{ "type": "Feature", "properties": { "osm_id": 3587091202, "osm_type": "nodes", "amenity": "school", "isced_level": null, "capacity": null, "name": "SD Hargomulyo" }, "geometry": { "type": "Point", "coordinates": [ 110.5915713, -7.8380424 ] } },
{ "type": "Feature", "properties": { "osm_id": 11904445359, "osm_type": "nodes", "amenity": "school", "isced_level": null, "capacity": null, "name": "MTs Yapi Pakem" }, "geometry": { "type": "Point", "coordinates": [ 110.4175806, -7.6646435 ] } },
{ "type": "Feature", "properties": { "osm_id": 3254790975, "osm_type": "nodes", "amenity": "school", "isced_level": null, "capacity": null, "name": "Pondok Pesantren & Panti Asuhan Sabihul Huda" }, "geometry": { "type": "Point", "coordinates": [ 110.4185876, -7.6677755 ] } },
{ "type": "Feature", "properties": { "osm_id": 3254790987, "osm_type": "nodes", "amenity": "school", "isced_level": null, "capacity": null, "name": "SMK Kanisius Pakem" }, "geometry": { "type": "Point", "coordinates": [ 110.4164831, -7.6645256 ] } },
{ "type": "Feature", "properties": { "osm_id": 3254790990, "osm_type": "nodes", "amenity": "school", "isced_level": null, "capacity": null, "name": "TK Bina Kasih" }, "geometry": { "type": "Point", "coordinates": [ 110.4172651, -7.6683284 ] } },
{ "type": "Feature", "properties": { "osm_id": 3254790985, "osm_type": "nodes", "amenity": "school", "isced_level": null, "capacity": null, "name": "SMA Islam 3 Sleman" }, "geometry": { "type": "Point", "coordinates": [ 110.417486, -7.6638022 ] } },
{ "type": "Feature", "properties": { "osm_id": 11904531897, "osm_type": "nodes", "amenity": "school", "isced_level": null, "capacity": null, "name": "SD Negeri Pakem 4" }, "geometry": { "type": "Point", "coordinates": [ 110.4166585, -7.6663702 ] } },
{ "type": "Feature", "properties": { "osm_id": 5908312085, "osm_type": "nodes", "amenity": "school", "isced_level": null, "capacity": null, "name": "SMP Negeri 3 Berbah" }, "geometry": { "type": "Point", "coordinates": [ 110.4735113, -7.8139567 ] } },
{ "type": "Feature", "properties": { "osm_id": 5908312185, "osm_type": "nodes", "amenity": "school", "isced_level": null, "capacity": null, "name": "SD Muhammadiyah Bulu" }, "geometry": { "type": "Point", "coordinates": [ 110.4729562, -7.8148178 ] } },
{ "type": "Feature", "properties": { "osm_id": 9950536120, "osm_type": "nodes", "amenity": "school", "isced_level": null, "capacity": null, "name": "SMK Nasional Berbah" }, "geometry": { "type": "Point", "coordinates": [ 110.4575429, -7.7907549 ] } },
{ "type": "Feature", "properties": { "osm_id": 9811835466, "osm_type": "nodes", "amenity": "school", "isced_level": null, "capacity": null, "name": "SMP Negeri 2 Berbah" }, "geometry": { "type": "Point", "coordinates": [ 110.4446648, -7.8048241 ] } },
{ "type": "Feature", "properties": { "osm_id": 9950491731, "osm_type": "nodes", "amenity": "school", "isced_level": null, "capacity": null, "name": "SMK Yapemda I" }, "geometry": { "type": "Point", "coordinates": [ 110.4571396, -7.7924212 ] } },
{ "type": "Feature", "properties": { "osm_id": 4160468990, "osm_type": "nodes", "amenity": "school", "isced_level": null, "capacity": null, "name": "SD siyono III" }, "geometry": { "type": "Point", "coordinates": [ 110.5824051, -7.9464009 ] } },
{ "type": "Feature", "properties": { "osm_id": 5199446962, "osm_type": "nodes", "amenity": "school", "isced_level": null, "capacity": null, "name": "SDN Mustekerjo" }, "geometry": { "type": "Point", "coordinates": [ 110.4289558, -7.7607394 ] } },
{ "type": "Feature", "properties": { "osm_id": 3585055168, "osm_type": "nodes", "amenity": "school", "isced_level": null, "capacity": null, "name": "SMK Diponegoro Depok" }, "geometry": { "type": "Point", "coordinates": [ 110.4397814, -7.7602791 ] } },
{ "type": "Feature", "properties": { "osm_id": 3585055169, "osm_type": "nodes", "amenity": "school", "isced_level": null, "capacity": null, "name": "SMP Diponegoro Depok" }, "geometry": { "type": "Point", "coordinates": [ 110.4402299, -7.7603294 ] } },
{ "type": "Feature", "properties": { "osm_id": 9664828018, "osm_type": "nodes", "amenity": "school", "isced_level": null, "capacity": null, "name": "Global Islamic School" }, "geometry": { "type": "Point", "coordinates": [ 110.4291165, -7.7713713 ] } },
{ "type": "Feature", "properties": { "osm_id": 10077521380, "osm_type": "nodes", "amenity": "school", "isced_level": null, "capacity": null, "name": "Akademi Angkatan Udara Adisutjipto" }, "geometry": { "type": "Point", "coordinates": [ 110.4354036, -7.7916227 ] } },
{ "type": "Feature", "properties": { "osm_id": 11299063430, "osm_type": "nodes", "amenity": "school", "isced_level": null, "capacity": null, "name": "SD Negeri 1 Sorogenen" }, "geometry": { "type": "Point", "coordinates": [ 110.4401394, -7.7838498 ] } },
{ "type": "Feature", "properties": { "osm_id": 13175282101, "osm_type": "nodes", "amenity": "school", "isced_level": null, "capacity": null, "name": "TK Annur III" }, "geometry": { "type": "Point", "coordinates": [ 110.4312826, -7.7702922 ] } },
{ "type": "Feature", "properties": { "osm_id": 5805835407, "osm_type": "nodes", "amenity": "school", "isced_level": null, "capacity": null, "name": "SMK Muhammadiyah Seyegan" }, "geometry": { "type": "Point", "coordinates": [ 110.3066692, -7.7128044 ] } },
{ "type": "Feature", "properties": { "osm_id": 1363499073, "osm_type": "nodes", "amenity": "school", "isced_level": null, "capacity": null, "name": "SD N Margoagung" }, "geometry": { "type": "Point", "coordinates": [ 110.305594, -7.7136034 ] } },
{ "type": "Feature", "properties": { "osm_id": 1363499088, "osm_type": "nodes", "amenity": "school", "isced_level": null, "capacity": null, "name": "SDN Gentan" }, "geometry": { "type": "Point", "coordinates": [ 110.307955, -7.7087995 ] } },
{ "type": "Feature", "properties": { "osm_id": 1363500792, "osm_type": "nodes", "amenity": "school", "isced_level": null, "capacity": null, "name": "SMA 1 Seyegan" }, "geometry": { "type": "Point", "coordinates": [ 110.308492, -7.7076607 ] } },
{ "type": "Feature", "properties": { "osm_id": 1358383698, "osm_type": "nodes", "amenity": "school", "isced_level": null, "capacity": null, "name": "SMKN 2 Godean" }, "geometry": { "type": "Point", "coordinates": [ 110.2916252, -7.762042 ] } },
{ "type": "Feature", "properties": { "osm_id": 11333657720, "osm_type": "nodes", "amenity": "school", "isced_level": null, "capacity": null, "name": "SMKN 1 Sleman" }, "geometry": { "type": "Point", "coordinates": [ 110.2963139, -7.7603738 ] } },
{ "type": "Feature", "properties": { "osm_id": 11333565622, "osm_type": "nodes", "amenity": "school", "isced_level": null, "capacity": null, "name": "MTS N 5 SLEMAN" }, "geometry": { "type": "Point", "coordinates": [ 110.2969418, -7.7589105 ] } },
{ "type": "Feature", "properties": { "osm_id": 1360003136, "osm_type": "nodes", "amenity": "school", "isced_level": null, "capacity": null, "name": "SMK 1 Seyegan" }, "geometry": { "type": "Point", "coordinates": [ 110.3166831, -7.7311268 ] } },
{ "type": "Feature", "properties": { "osm_id": 3098380680, "osm_type": "nodes", "amenity": "school", "isced_level": null, "capacity": null, "name": "SD Negeri Margomulyo I" }, "geometry": { "type": "Point", "coordinates": [ 110.3158073, -7.7268123 ] } },
{ "type": "Feature", "properties": { "osm_id": 3394815900, "osm_type": "nodes", "amenity": "school", "isced_level": null, "capacity": null, "name": "SD Kadirojo" }, "geometry": { "type": "Point", "coordinates": [ 110.3433103, -7.6622296 ] } },
{ "type": "Feature", "properties": { "osm_id": 3394815901, "osm_type": "nodes", "amenity": "school", "isced_level": null, "capacity": null, "name": "SD Muhammadiyah Domban 2" }, "geometry": { "type": "Point", "coordinates": [ 110.318856, -7.670993 ] } },
{ "type": "Feature", "properties": { "osm_id": 11328357271, "osm_type": "nodes", "amenity": "school", "isced_level": null, "capacity": null, "name": "Sekolah Dasar" }, "geometry": { "type": "Point", "coordinates": [ 110.5861506, -7.856327 ] } },
{ "type": "Feature", "properties": { "osm_id": 8186543500, "osm_type": "nodes", "amenity": "school", "isced_level": null, "capacity": null, "name": "SMP N 1 KARANGMOJO" }, "geometry": { "type": "Point", "coordinates": [ 110.6758553, -7.9522106 ] } },
{ "type": "Feature", "properties": { "osm_id": 11777106673, "osm_type": "nodes", "amenity": "school", "isced_level": null, "capacity": null, "name": "SMP MA'ARIF GAMPING" }, "geometry": { "type": "Point", "coordinates": [ 110.331727, -7.7671032 ] } },
{ "type": "Feature", "properties": { "osm_id": 8484225017, "osm_type": "nodes", "amenity": "school", "isced_level": null, "capacity": null, "name": "Pondok pesantren Arrisalah mlangi" }, "geometry": { "type": "Point", "coordinates": [ 110.331713, -7.7620128 ] } },
{ "type": "Feature", "properties": { "osm_id": 3320185993, "osm_type": "nodes", "amenity": "school", "isced_level": null, "capacity": null, "name": "SD Baturan 1" }, "geometry": { "type": "Point", "coordinates": [ 110.3450761, -7.7617747 ] } },
{ "type": "Feature", "properties": { "osm_id": 5520120721, "osm_type": "nodes", "amenity": "school", "isced_level": null, "capacity": null, "name": "SMP Muhammadiyah Pakem" }, "geometry": { "type": "Point", "coordinates": [ 110.4225073, -7.6605115 ] } },
{ "type": "Feature", "properties": { "osm_id": 3254790991, "osm_type": "nodes", "amenity": "school", "isced_level": null, "capacity": null, "name": "TK N 2 Sleman" }, "geometry": { "type": "Point", "coordinates": [ 110.4212098, -7.667214 ] } },
{ "type": "Feature", "properties": { "osm_id": 11905881516, "osm_type": "nodes", "amenity": "school", "isced_level": null, "capacity": null, "name": "SD Negeri Pakem 1" }, "geometry": { "type": "Point", "coordinates": [ 110.4219035, -7.6592087 ] } },
{ "type": "Feature", "properties": { "osm_id": 11905892879, "osm_type": "nodes", "amenity": "school", "isced_level": null, "capacity": null, "name": "SD Negeri Pakem 2" }, "geometry": { "type": "Point", "coordinates": [ 110.4200837, -7.663292 ] } },
{ "type": "Feature", "properties": { "osm_id": 3254790984, "osm_type": "nodes", "amenity": "school", "isced_level": null, "capacity": null, "name": "SLB N 1 Sleman" }, "geometry": { "type": "Point", "coordinates": [ 110.4281783, -7.6653716 ] } },
{ "type": "Feature", "properties": { "osm_id": 3254790986, "osm_type": "nodes", "amenity": "school", "isced_level": null, "capacity": null, "name": "SMA Muhammadiyah Pakem" }, "geometry": { "type": "Point", "coordinates": [ 110.4213241, -7.6669092 ] } },
{ "type": "Feature", "properties": { "osm_id": 2701497342, "osm_type": "nodes", "amenity": "school", "isced_level": null, "capacity": null, "name": "SD Muhammadiyah Pakem" }, "geometry": { "type": "Point", "coordinates": [ 110.422631, -7.6599205 ] } },
{ "type": "Feature", "properties": { "osm_id": 5024612156, "osm_type": "nodes", "amenity": "school", "isced_level": null, "capacity": null, "name": "SMPN 1 Pakem" }, "geometry": { "type": "Point", "coordinates": [ 110.4216531, -7.6595782 ] } },
{ "type": "Feature", "properties": { "osm_id": 9769356918, "osm_type": "nodes", "amenity": "school", "isced_level": null, "capacity": null, "name": "SD Eksperimental Mangunan" }, "geometry": { "type": "Point", "coordinates": [ 110.4551848, -7.774274 ] } },
{ "type": "Feature", "properties": { "osm_id": 11905892460, "osm_type": "nodes", "amenity": "school", "isced_level": null, "capacity": null, "name": "TK al Ihsan" }, "geometry": { "type": "Point", "coordinates": [ 110.4393791, -7.7403184 ] } },
{ "type": "Feature", "properties": { "osm_id": 4146165986, "osm_type": "nodes", "amenity": "school", "isced_level": null, "capacity": null, "name": "TK Purbasari" }, "geometry": { "type": "Point", "coordinates": [ 110.4509607, -7.7507302 ] } },
{ "type": "Feature", "properties": { "osm_id": 9769376840, "osm_type": "nodes", "amenity": "school", "isced_level": null, "capacity": null, "name": "SMP Eksperimental Mangunan" }, "geometry": { "type": "Point", "coordinates": [ 110.4549119, -7.7743832 ] } },
{ "type": "Feature", "properties": { "osm_id": 9766321943, "osm_type": "nodes", "amenity": "school", "isced_level": null, "capacity": null, "name": "SD Kanisius Kalasan" }, "geometry": { "type": "Point", "coordinates": [ 110.4644997, -7.7736289 ] } },
{ "type": "Feature", "properties": { "osm_id": 13704675089, "osm_type": "nodes", "amenity": "school", "isced_level": null, "capacity": null, "name": "SMK Bina Harapan" }, "geometry": { "type": "Point", "coordinates": [ 110.40364, -7.7239482 ] } },
{ "type": "Feature", "properties": { "osm_id": 13704701960, "osm_type": "nodes", "amenity": "school", "isced_level": null, "capacity": null, "name": "SDN Ngebelgede 1" }, "geometry": { "type": "Point", "coordinates": [ 110.399844, -7.7196404 ] } },
{ "type": "Feature", "properties": { "osm_id": 10967867619, "osm_type": "nodes", "amenity": "school", "isced_level": null, "capacity": null, "name": "MTS-MA Taruna Al-Qur'an" }, "geometry": { "type": "Point", "coordinates": [ 110.3751013, -7.7488154 ] } },
{ "type": "Feature", "properties": { "osm_id": 12298810355, "osm_type": "nodes", "amenity": "school", "isced_level": null, "capacity": null, "name": "YOGYAKARTA INDEPENDENT SCHOOL" }, "geometry": { "type": "Point", "coordinates": [ 110.3672142, -7.7455246 ] } },
{ "type": "Feature", "properties": { "osm_id": 5788386054, "osm_type": "nodes", "amenity": "school", "isced_level": null, "capacity": null, "name": "Al-Azhar Yogyakarta" }, "geometry": { "type": "Point", "coordinates": [ 110.3748798, -7.7505506 ] } },
{ "type": "Feature", "properties": { "osm_id": 12298810354, "osm_type": "nodes", "amenity": "school", "isced_level": null, "capacity": null, "name": "Sekolah" }, "geometry": { "type": "Point", "coordinates": [ 110.3666773, -7.7466494 ] } },
{ "type": "Feature", "properties": { "osm_id": 5317742021, "osm_type": "nodes", "amenity": "school", "isced_level": null, "capacity": null, "name": "Al-Azhar Yogyakarta" }, "geometry": { "type": "Point", "coordinates": [ 110.3749582, -7.7503506 ] } },
{ "type": "Feature", "properties": { "osm_id": 13608130621, "osm_type": "nodes", "amenity": "school", "isced_level": null, "capacity": null, "name": "SD Islam Al Azhar 77" }, "geometry": { "type": "Point", "coordinates": [ 110.3750977, -7.750761 ] } },
{ "type": "Feature", "properties": { "osm_id": 13608130622, "osm_type": "nodes", "amenity": "school", "isced_level": null, "capacity": null, "name": "SD Islam Al Azhar 31" }, "geometry": { "type": "Point", "coordinates": [ 110.3747526, -7.7507662 ] } },
{ "type": "Feature", "properties": { "osm_id": 13608130623, "osm_type": "nodes", "amenity": "school", "isced_level": null, "capacity": null, "name": "KB/TK Islam Al Azhar 31" }, "geometry": { "type": "Point", "coordinates": [ 110.374742, -7.7505313 ] } },
{ "type": "Feature", "properties": { "osm_id": 2593288233, "osm_type": "nodes", "amenity": "school", "isced_level": null, "capacity": null, "name": "SMP Negeri 2 Kalasan" }, "geometry": { "type": "Point", "coordinates": [ 110.4696283, -7.7242115 ] } },
{ "type": "Feature", "properties": { "osm_id": 11333540459, "osm_type": "nodes", "amenity": "school", "isced_level": null, "capacity": null, "name": "SD Muhammadiyah Suronandan" }, "geometry": { "type": "Point", "coordinates": [ 110.2630693, -7.7377854 ] } },
{ "type": "Feature", "properties": { "osm_id": 3687878726, "osm_type": "nodes", "amenity": "school", "isced_level": null, "capacity": null, "name": "SD Kanisius" }, "geometry": { "type": "Point", "coordinates": [ 110.272789, -7.7441364 ] } },
{ "type": "Feature", "properties": { "osm_id": 3601814242, "osm_type": "nodes", "amenity": "school", "isced_level": null, "capacity": null, "name": "SD Serut" }, "geometry": { "type": "Point", "coordinates": [ 110.5484512, -7.795008 ] } },
{ "type": "Feature", "properties": { "osm_id": 3481177656, "osm_type": "nodes", "amenity": "school", "isced_level": null, "capacity": null, "name": "SD Negeri 1 Godean" }, "geometry": { "type": "Point", "coordinates": [ 110.2898222, -7.76694 ] } },
{ "type": "Feature", "properties": { "osm_id": 6371354583, "osm_type": "nodes", "amenity": "school", "isced_level": null, "capacity": null, "name": "SD Negeri 3 Godean" }, "geometry": { "type": "Point", "coordinates": [ 110.2853228, -7.7661415 ] } },
{ "type": "Feature", "properties": { "osm_id": 1844897315, "osm_type": "nodes", "amenity": "school", "isced_level": null, "capacity": null, "name": "STMM MMTC" }, "geometry": { "type": "Point", "coordinates": [ 110.3618244, -7.7511707 ] } },
{ "type": "Feature", "properties": { "osm_id": 12298792205, "osm_type": "nodes", "amenity": "school", "isced_level": null, "capacity": null, "name": null }, "geometry": { "type": "Point", "coordinates": [ 110.3642268, -7.7615368 ] } },
{ "type": "Feature", "properties": { "osm_id": 9671853425, "osm_type": "nodes", "amenity": "school", "isced_level": null, "capacity": null, "name": "SD Kanisius Babadan" }, "geometry": { "type": "Point", "coordinates": [ 110.4354805, -7.7217207 ] } },
{ "type": "Feature", "properties": { "osm_id": 4146201738, "osm_type": "nodes", "amenity": "school", "isced_level": null, "capacity": null, "name": "SMA Negeri 2 Ngaglik" }, "geometry": { "type": "Point", "coordinates": [ 110.4349058, -7.7049824 ] } },
{ "type": "Feature", "properties": { "osm_id": 9483593103, "osm_type": "nodes", "amenity": "school", "isced_level": null, "capacity": null, "name": "SD Negeri Seloharjo" }, "geometry": { "type": "Point", "coordinates": [ 110.4348478, -7.7046482 ] } },
{ "type": "Feature", "properties": { "osm_id": 1361205677, "osm_type": "nodes", "amenity": "school", "isced_level": null, "capacity": null, "name": "MTS N Sleman" }, "geometry": { "type": "Point", "coordinates": [ 110.3410602, -7.712692 ] } },
{ "type": "Feature", "properties": { "osm_id": 1358383860, "osm_type": "nodes", "amenity": "school", "isced_level": null, "capacity": null, "name": "SMK 1 Moyudan" }, "geometry": { "type": "Point", "coordinates": [ 110.2569672, -7.7602456 ] } },
{ "type": "Feature", "properties": { "osm_id": 2637733193, "osm_type": "nodes", "amenity": "school", "isced_level": null, "capacity": null, "name": "SD Negeri 2 Ngijon" }, "geometry": { "type": "Point", "coordinates": [ 110.262367, -7.7608015 ] } },
{ "type": "Feature", "properties": { "osm_id": 1431541536, "osm_type": "nodes", "amenity": "school", "isced_level": null, "capacity": null, "name": "TK ABA Mergan" }, "geometry": { "type": "Point", "coordinates": [ 110.2449475, -7.7702308 ] } },
{ "type": "Feature", "properties": { "osm_id": 1431541535, "osm_type": "nodes", "amenity": "school", "isced_level": null, "capacity": null, "name": "SD N Sumberagung" }, "geometry": { "type": "Point", "coordinates": [ 110.244616, -7.7707913 ] } },
{ "type": "Feature", "properties": { "osm_id": 5769382542, "osm_type": "nodes", "amenity": "school", "isced_level": null, "capacity": null, "name": "SDN Sumberrahayu" }, "geometry": { "type": "Point", "coordinates": [ 110.2389272, -7.7889491 ] } },
{ "type": "Feature", "properties": { "osm_id": 1431542227, "osm_type": "nodes", "amenity": "school", "isced_level": null, "capacity": null, "name": "SMK Muhammdiyah 2 Moyudan" }, "geometry": { "type": "Point", "coordinates": [ 110.2528788, -7.7765532 ] } },
{ "type": "Feature", "properties": { "osm_id": 11233023877, "osm_type": "nodes", "amenity": "school", "isced_level": null, "capacity": null, "name": "Raudhatul Athfal Yufiidu" }, "geometry": { "type": "Point", "coordinates": [ 110.249107, -7.7868357 ] } },
{ "type": "Feature", "properties": { "osm_id": 3306151790, "osm_type": "nodes", "amenity": "school", "isced_level": null, "capacity": null, "name": "SD gaten" }, "geometry": { "type": "Point", "coordinates": [ 110.2987927, -7.6776321 ] } },
{ "type": "Feature", "properties": { "osm_id": 5152584435, "osm_type": "nodes", "amenity": "school", "isced_level": null, "capacity": null, "name": "SD N Bendungan" }, "geometry": { "type": "Point", "coordinates": [ 110.4690085, -7.7769809 ] } },
{ "type": "Feature", "properties": { "osm_id": 2004886528, "osm_type": "nodes", "amenity": "school", "isced_level": null, "capacity": null, "name": "SMK YPKK" }, "geometry": { "type": "Point", "coordinates": [ 110.3488169, -7.7005127 ] } },
{ "type": "Feature", "properties": { "osm_id": 3320188943, "osm_type": "nodes", "amenity": "school", "isced_level": null, "capacity": null, "name": "SD Negeri Mayangan" }, "geometry": { "type": "Point", "coordinates": [ 110.3468514, -7.7539781 ] } },
{ "type": "Feature", "properties": { "osm_id": 1364438005, "osm_type": "nodes", "amenity": "school", "isced_level": null, "capacity": null, "name": "SMP 2 Sleman" }, "geometry": { "type": "Point", "coordinates": [ 110.3427424, -7.6902468 ] } },
{ "type": "Feature", "properties": { "osm_id": 9671805383, "osm_type": "nodes", "amenity": "school", "isced_level": null, "capacity": null, "name": "SD Negeri Pokoh 2" }, "geometry": { "type": "Point", "coordinates": [ 110.4286044, -7.7374161 ] } },
{ "type": "Feature", "properties": { "osm_id": 9671817184, "osm_type": "nodes", "amenity": "school", "isced_level": null, "capacity": null, "name": "SD Budi Mulia Dua Panjen Yogyakarta" }, "geometry": { "type": "Point", "coordinates": [ 110.4320156, -7.7393417 ] } },
{ "type": "Feature", "properties": { "osm_id": 9751929148, "osm_type": "nodes", "amenity": "school", "isced_level": null, "capacity": null, "name": null }, "geometry": { "type": "Point", "coordinates": [ 110.7347699, -8.0159471 ] } },
{ "type": "Feature", "properties": { "osm_id": 10188637070, "osm_type": "nodes", "amenity": "school", "isced_level": null, "capacity": null, "name": null }, "geometry": { "type": "Point", "coordinates": [ 110.7116287, -7.9533635 ] } },
{ "type": "Feature", "properties": { "osm_id": 10188637062, "osm_type": "nodes", "amenity": "school", "isced_level": null, "capacity": null, "name": null }, "geometry": { "type": "Point", "coordinates": [ 110.7122387, -7.9515999 ] } },
{ "type": "Feature", "properties": { "osm_id": 13721031817, "osm_type": "nodes", "amenity": "school", "isced_level": null, "capacity": null, "name": "SDN Karangwuni I. Rongkop" }, "geometry": { "type": "Point", "coordinates": [ 110.7532175, -8.0437885 ] } },
{ "type": "Feature", "properties": { "osm_id": 9807740787, "osm_type": "nodes", "amenity": "school", "isced_level": null, "capacity": null, "name": "SD N Baran 2" }, "geometry": { "type": "Point", "coordinates": [ 110.7770461, -8.0826914 ] } },
{ "type": "Feature", "properties": { "osm_id": 11759431298, "osm_type": "nodes", "amenity": "school", "isced_level": null, "capacity": null, "name": "SMP N 1 Ponjong" }, "geometry": { "type": "Point", "coordinates": [ 110.7081538, -7.9766691 ] } },
{ "type": "Feature", "properties": { "osm_id": 11298920933, "osm_type": "nodes", "amenity": "school", "isced_level": null, "capacity": null, "name": "SD Bendogede" }, "geometry": { "type": "Point", "coordinates": [ 110.7296819, -7.9740324 ] } },
{ "type": "Feature", "properties": { "osm_id": 8186537747, "osm_type": "nodes", "amenity": "school", "isced_level": null, "capacity": null, "name": "SD KARANGMOJO 1" }, "geometry": { "type": "Point", "coordinates": [ 110.6912883, -7.9615034 ] } },
{ "type": "Feature", "properties": { "osm_id": 8186518913, "osm_type": "nodes", "amenity": "school", "isced_level": null, "capacity": null, "name": "SMA N 1 KARANGMOJO" }, "geometry": { "type": "Point", "coordinates": [ 110.6721302, -7.9667938 ] } },
{ "type": "Feature", "properties": { "osm_id": 12103665305, "osm_type": "nodes", "amenity": "school", "isced_level": null, "capacity": null, "name": "SDN Purwodadi Tepus" }, "geometry": { "type": "Point", "coordinates": [ 110.6802232, -8.1484058 ] } },
{ "type": "Feature", "properties": { "osm_id": 12103637325, "osm_type": "nodes", "amenity": "school", "isced_level": null, "capacity": null, "name": "SMP Muhammadiyah 2 Tepus" }, "geometry": { "type": "Point", "coordinates": [ 110.6801995, -8.1488226 ] } }
]
}
